E-ST@R-II               
1 41459U 16025D   17346.37487758  .00000759  00000-0  44059-4 0  9994
2 41459  98.1633  33.9619 0174010  54.5872 307.1461 15.03813845 89344
